{
  "type": "FeatureCollection",
  "features": [
    {
      "type": "Feature",
      "properties": {
        "tipo": "track"
      },
      "geometry": {
        "type": "LineString",
        "coordinates": [
          [
            -57.894287109375,
            -34.8776092529297
          ],
          [
            -57.894287109375,
            -34.8776092529297
          ],
          [
            -57.894287109375,
            -34.8776092529297
          ],
          [
            -57.894287109375,
            -34.8776092529297
          ],
          [
            -57.894287109375,
            -34.8776092529297
          ],
          [
            -57.894287109375,
            -34.8776092529297
          ],
          [
            -57.894287109375,
            -34.8776092529297
          ],
          [
            -57.894287109375,
            -34.8776092529297
          ],
          [
            -57.894287109375,
            -34.8776092529297
          ],
          [
            -57.894287109375,
            -34.8776092529297
          ],
          [
            -57.894287109375,
            -34.8776092529297
          ],
          [
            -57.894287109375,
            -34.8776092529297
          ],
          [
            -57.894287109375,
            -34.8776092529297
          ],
          [
            -57.894287109375,
            -34.8776092529297
          ],
          [
            -57.894287109375,
            -34.8776092529297
          ],
          [
            -57.894283294677734,
            -34.8776092529297
          ],
          [
            -57.894283294677734,
            -34.8776092529297
          ],
          [
            -57.894283294677734,
            -34.87760543823242
          ],
          [
            -57.894283294677734,
            -34.87760543823242
          ],
          [
            -57.89427947998047,
            -34.87760543823242
          ],
          [
            -57.89427947998047,
            -34.87760543823242
          ],
          [
            -57.89427947998047,
            -34.877601623535156
          ],
          [
            -57.89427947998047,
            -34.877601623535156
          ],
          [
            -57.89427947998047,
            -34.87760543823242
          ],
          [
            -57.89427947998047,
            -34.87760543823242
          ],
          [
            -57.89427947998047,
            -34.87760543823242
          ],
          [
            -57.89427947998047,
            -34.87760543823242
          ],
          [
            -57.89427947998047,
            -34.87760543823242
          ],
          [
            -57.89427947998047,
            -34.87760543823242
          ],
          [
            -57.89427947998047,
            -34.87760543823242
          ],
          [
            -57.89427947998047,
            -34.87760543823242
          ],
          [
            -57.89427947998047,
            -34.87760543823242
          ],
          [
            -57.89427947998047,
            -34.87760543823242
          ],
          [
            -57.894283294677734,
            -34.8776092529297
          ],
          [
            -57.894283294677734,
            -34.8776092529297
          ],
          [
            -57.894287109375,
            -34.8776092529297
          ],
          [
            -57.894287109375,
            -34.8776092529297
          ],
          [
            -57.894287109375,
            -34.87761306762695
          ],
          [
            -57.894287109375,
            -34.87761306762695
          ],
          [
            -57.894287109375,
            -34.87761306762695
          ],
          [
            -57.894287109375,
            -34.87761306762695
          ],
          [
            -57.894287109375,
            -34.87761306762695
          ],
          [
            -57.894287109375,
            -34.87761306762695
          ],
          [
            -57.894287109375,
            -34.87761306762695
          ],
          [
            -57.894287109375,
            -34.87761306762695
          ],
          [
            -57.894287109375,
            -34.87761306762695
          ],
          [
            -57.894287109375,
            -34.87761306762695
          ],
          [
            -57.894287109375,
            -34.87761306762695
          ],
          [
            -57.894287109375,
            -34.87761306762695
          ],
          [
            -57.894287109375,
            -34.87761306762695
          ],
          [
            -57.894287109375,
            -34.87761306762695
          ],
          [
            -57.894287109375,
            -34.87761306762695
          ]
        ]
      }
    },
    {
      "type": "Feature",
      "properties": {
        "sequence": 1,
        "motivo": "inicio"
      },
      "geometry": {
        "type": "Point",
        "coordinates": [
          -57.894287109375,
          -34.8776092529297
        ]
      }
    },
    {
      "type": "Feature",
      "properties": {
        "sequence": 2,
        "motivo": "espaciado"
      },
      "geometry": {
        "type": "Point",
        "coordinates": [
          -57.894283294677734,
          -34.8776092529297
        ]
      }
    },
    {
      "type": "Feature",
      "properties": {
        "sequence": 3,
        "motivo": "espaciado"
      },
      "geometry": {
        "type": "Point",
        "coordinates": [
          -57.894283294677734,
          -34.87760543823242
        ]
      }
    },
    {
      "type": "Feature",
      "properties": {
        "sequence": 4,
        "motivo": "espaciado"
      },
      "geometry": {
        "type": "Point",
        "coordinates": [
          -57.89427947998047,
          -34.87760543823242
        ]
      }
    },
    {
      "type": "Feature",
      "properties": {
        "sequence": 5,
        "motivo": "espaciado"
      },
      "geometry": {
        "type": "Point",
        "coordinates": [
          -57.89427947998047,
          -34.877601623535156
        ]
      }
    },
    {
      "type": "Feature",
      "properties": {
        "sequence": 6,
        "motivo": "espaciado"
      },
      "geometry": {
        "type": "Point",
        "coordinates": [
          -57.89427947998047,
          -34.87760543823242
        ]
      }
    },
    {
      "type": "Feature",
      "properties": {
        "sequence": 7,
        "motivo": "espaciado"
      },
      "geometry": {
        "type": "Point",
        "coordinates": [
          -57.894283294677734,
          -34.8776092529297
        ]
      }
    },
    {
      "type": "Feature",
      "properties": {
        "sequence": 8,
        "motivo": "espaciado"
      },
      "geometry": {
        "type": "Point",
        "coordinates": [
          -57.894287109375,
          -34.8776092529297
        ]
      }
    },
    {
      "type": "Feature",
      "properties": {
        "sequence": 9,
        "motivo": "espaciado"
      },
      "geometry": {
        "type": "Point",
        "coordinates": [
          -57.894287109375,
          -34.87761306762695
        ]
      }
    }
  ]
}