{
  "type": "FeatureCollection",
  "features": [
    {
      "type": "Feature",
      "properties": {
        "tipo": "track"
      },
      "geometry": {
        "type": "LineString",
        "coordinates": [
          [
            -84.10586547851562,
            9.79152584075928
          ],
          [
            -84.10586547851562,
            9.79152584075928
          ],
          [
            -84.10586547851562,
            9.79152584075928
          ],
          [
            -84.10586547851562,
            9.79152584075928
          ],
          [
            -84.10586547851562,
            9.79152584075928
          ],
          [
            -84.10586547851562,
            9.79152584075928
          ],
          [
            -84.10586547851562,
            9.79152584075928
          ],
          [
            -84.10586547851562,
            9.79152584075928
          ],
          [
            -84.10586547851562,
            9.79152584075928
          ],
          [
            -84.10586547851562,
            9.79152488708496
          ],
          [
            -84.10586547851562,
            9.79152488708496
          ],
          [
            -84.10586547851562,
            9.79152488708496
          ],
          [
            -84.10586547851562,
            9.79152488708496
          ],
          [
            -84.10586547851562,
            9.79152488708496
          ],
          [
            -84.10586547851562,
            9.79152488708496
          ],
          [
            -84.10586547851562,
            9.791523933410645
          ],
          [
            -84.10586547851562,
            9.791523933410645
          ],
          [
            -84.10586547851562,
            9.791523933410645
          ],
          [
            -84.10586547851562,
            9.791523933410645
          ],
          [
            -84.10586547851562,
            9.791523933410645
          ],
          [
            -84.10587310791016,
            9.791523933410645
          ],
          [
            -84.10587310791016,
            9.791523933410645
          ],
          [
            -84.10587310791016,
            9.791523933410645
          ],
          [
            -84.10587310791016,
            9.791523933410645
          ],
          [
            -84.10587310791016,
            9.791523933410645
          ],
          [
            -84.10587310791016,
            9.79152488708496
          ],
          [
            -84.10587310791016,
            9.79152488708496
          ],
          [
            -84.10587310791016,
            9.79152488708496
          ],
          [
            -84.10587310791016,
            9.79152488708496
          ],
          [
            -84.10587310791016,
            9.79152488708496
          ],
          [
            -84.10587310791016,
            9.79152488708496
          ],
          [
            -84.10587310791016,
            9.79152488708496
          ],
          [
            -84.10587310791016,
            9.79152488708496
          ],
          [
            -84.1058807373047,
            9.791523933410645
          ],
          [
            -84.1058807373047,
            9.791523933410645
          ],
          [
            -84.1058807373047,
            9.791523933410645
          ],
          [
            -84.1058807373047,
            9.791523933410645
          ],
          [
            -84.1058807373047,
            9.79152202606201
          ],
          [
            -84.1058807373047,
            9.79152011871338
          ],
          [
            -84.1058807373047,
            9.79152011871338
          ],
          [
            -84.1058807373047,
            9.79152011871338
          ],
          [
            -84.1058807373047,
            9.79152011871338
          ],
          [
            -84.1058883666992,
            9.79151916503906
          ],
          [
            -84.1058883666992,
            9.79151916503906
          ],
          [
            -84.1058883666992,
            9.791521072387695
          ],
          [
            -84.1058883666992,
            9.791521072387695
          ],
          [
            -84.1058883666992,
            9.79152584075928
          ],
          [
            -84.1058883666992,
            9.79152584075928
          ],
          [
            -84.1058883666992,
            9.791529655456543
          ],
          [
            -84.1058883666992,
            9.791529655456543
          ],
          [
            -84.1058883666992,
            9.791534423828125
          ],
          [
            -84.1058883666992,
            9.791534423828125
          ],
          [
            -84.1058883666992,
            9.791540145874023
          ],
          [
            -84.1058883666992,
            9.791540145874023
          ],
          [
            -84.1058883666992,
            9.79154586791992
          ],
          [
            -84.1058883666992,
            9.79154586791992
          ],
          [
            -84.10589599609375,
            9.79154872894287
          ],
          [
            -84.10589599609375,
            9.79154872894287
          ],
          [
            -84.10589599609375,
            9.791552543640137
          ],
          [
            -84.10589599609375,
            9.791552543640137
          ],
          [
            -84.1059036254883,
            9.791555404663086
          ],
          [
            -84.1059036254883,
            9.791555404663086
          ],
          [
            -84.1059036254883,
            9.79155731201172
          ],
          [
            -84.1059036254883,
            9.79155731201172
          ],
          [
            -84.1059036254883,
            9.79155731201172
          ],
          [
            -84.1059036254883,
            9.79155731201172
          ],
          [
            -84.1059036254883,
            9.791558265686035
          ],
          [
            -84.1059036254883,
            9.791558265686035
          ],
          [
            -84.1059036254883,
            9.791558265686035
          ],
          [
            -84.1059036254883,
            9.791558265686035
          ],
          [
            -84.1059036254883,
            9.79155921936035
          ],
          [
            -84.1059036254883,
            9.79155921936035
          ],
          [
            -84.1059036254883,
            9.79155921936035
          ],
          [
            -84.1059036254883,
            9.79155921936035
          ],
          [
            -84.1059036254883,
            9.79155921936035
          ],
          [
            -84.1059036254883,
            9.79155921936035
          ],
          [
            -84.1059036254883,
            9.79156017303467
          ],
          [
            -84.1059036254883,
            9.79156017303467
          ],
          [
            -84.1059036254883,
            9.79156017303467
          ],
          [
            -84.1059036254883,
            9.79156017303467
          ],
          [
            -84.1059036254883,
            9.79156017303467
          ],
          [
            -84.1059036254883,
            9.79156017303467
          ],
          [
            -84.1059036254883,
            9.79156017303467
          ],
          [
            -84.1059036254883,
            9.79156017303467
          ],
          [
            -84.1059036254883,
            9.79156017303467
          ],
          [
            -84.1059036254883,
            9.79156017303467
          ],
          [
            -84.1059036254883,
            9.79156017303467
          ],
          [
            -84.1059036254883,
            9.79156017303467
          ],
          [
            -84.1059036254883,
            9.79156017303467
          ],
          [
            -84.1059036254883,
            9.79156017303467
          ],
          [
            -84.1059036254883,
            9.79156017303467
          ],
          [
            -84.1059036254883,
            9.79156017303467
          ],
          [
            -84.1059036254883,
            9.79156017303467
          ],
          [
            -84.1059036254883,
            9.79156017303467
          ],
          [
            -84.1059036254883,
            9.79156017303467
          ],
          [
            -84.1059036254883,
            9.791561126708984
          ],
          [
            -84.1059036254883,
            9.791561126708984
          ],
          [
            -84.1059036254883,
            9.791561126708984
          ],
          [
            -84.1059036254883,
            9.791561126708984
          ],
          [
            -84.1059036254883,
            9.791561126708984
          ],
          [
            -84.1059036254883,
            9.7915620803833
          ],
          [
            -84.1059036254883,
            9.79156303405762
          ],
          [
            -84.1059036254883,
            9.79156303405762
          ],
          [
            -84.1059112548828,
            9.79156303405762
          ],
          [
            -84.1059112548828,
            9.79156303405762
          ],
          [
            -84.1059112548828,
            9.79156303405762
          ],
          [
            -84.1059112548828,
            9.79156303405762
          ],
          [
            -84.1059112548828,
            9.791563987731934
          ],
          [
            -84.1059112548828,
            9.791563987731934
          ],
          [
            -84.1059112548828,
            9.791563987731934
          ],
          [
            -84.1059112548828,
            9.791563987731934
          ],
          [
            -84.1059112548828,
            9.791563987731934
          ],
          [
            -84.1059112548828,
            9.791563987731934
          ],
          [
            -84.1059112548828,
            9.791563987731934
          ],
          [
            -84.1059112548828,
            9.791563987731934
          ],
          [
            -84.1059112548828,
            9.791563987731934
          ],
          [
            -84.1059112548828,
            9.791563987731934
          ],
          [
            -84.1059112548828,
            9.7915620803833
          ],
          [
            -84.1059112548828,
            9.7915620803833
          ],
          [
            -84.10591888427734,
            9.79155921936035
          ],
          [
            -84.10591888427734,
            9.79155921936035
          ],
          [
            -84.10591888427734,
            9.79155731201172
          ],
          [
            -84.10591888427734,
            9.79155731201172
          ],
          [
            -84.10592651367188,
            9.791555404663086
          ],
          [
            -84.10592651367188,
            9.791555404663086
          ],
          [
            -84.1059341430664,
            9.79155445098877
          ],
          [
            -84.1059341430664,
            9.79155445098877
          ],
          [
            -84.1059341430664,
            9.791553497314453
          ],
          [
            -84.1059341430664,
            9.791553497314453
          ],
          [
            -84.10594177246094,
            9.79155158996582
          ],
          [
            -84.10594177246094,
            9.79155158996582
          ],
          [
            -84.10594940185547,
            9.79154872894287
          ],
          [
            -84.10594940185547,
            9.79154872894287
          ],
          [
            -84.10594940185547,
            9.791547775268555
          ],
          [
            -84.10594940185547,
            9.791547775268555
          ],
          [
            -84.10594940185547,
            9.791547775268555
          ],
          [
            -84.10594940185547,
            9.791547775268555
          ],
          [
            -84.10594940185547,
            9.791547775268555
          ],
          [
            -84.10594940185547,
            9.791547775268555
          ],
          [
            -84.10594940185547,
            9.791547775268555
          ],
          [
            -84.10594940185547,
            9.791547775268555
          ],
          [
            -84.10594940185547,
            9.791547775268555
          ],
          [
            -84.10594940185547,
            9.791547775268555
          ],
          [
            -84.10594940185547,
            9.791547775268555
          ],
          [
            -84.10594940185547,
            9.79154872894287
          ],
          [
            -84.10594940185547,
            9.79154872894287
          ],
          [
            -84.10594940185547,
            9.79154872894287
          ],
          [
            -84.10594940185547,
            9.79154872894287
          ],
          [
            -84.10594940185547,
            9.79154872894287
          ],
          [
            -84.10594940185547,
            9.79154872894287
          ],
          [
            -84.10594940185547,
            9.79154872894287
          ],
          [
            -84.10594940185547,
            9.79154872894287
          ],
          [
            -84.10594940185547,
            9.79154872894287
          ],
          [
            -84.10594940185547,
            9.79154872894287
          ],
          [
            -84.10594940185547,
            9.79154872894287
          ],
          [
            -84.10594940185547,
            9.79154872894287
          ],
          [
            -84.10594940185547,
            9.79154872894287
          ],
          [
            -84.10594940185547,
            9.79154872894287
          ],
          [
            -84.10594940185547,
            9.79154872894287
          ],
          [
            -84.10594940185547,
            9.79154872894287
          ],
          [
            -84.10594940185547,
            9.79154872894287
          ],
          [
            -84.10594940185547,
            9.79154872894287
          ],
          [
            -84.10594940185547,
            9.79154968261719
          ],
          [
            -84.10594940185547,
            9.79154968261719
          ],
          [
            -84.10594177246094,
            9.791550636291504
          ],
          [
            -84.10594177246094,
            9.791550636291504
          ],
          [
            -84.10594177246094,
            9.791553497314453
          ],
          [
            -84.10594177246094,
            9.791553497314453
          ],
          [
            -84.1059341430664,
            9.791555404663086
          ],
          [
            -84.1059341430664,
            9.791555404663086
          ],
          [
            -84.1059341430664,
            9.791555404663086
          ],
          [
            -84.1059341430664,
            9.791555404663086
          ],
          [
            -84.1059341430664,
            9.791555404663086
          ],
          [
            -84.1059341430664,
            9.791555404663086
          ],
          [
            -84.1059341430664,
            9.791555404663086
          ],
          [
            -84.1059341430664,
            9.791555404663086
          ],
          [
            -84.10592651367188,
            9.791558265686035
          ],
          [
            -84.10592651367188,
            9.791561126708984
          ],
          [
            -84.10591888427734,
            9.79156494140625
          ],
          [
            -84.10591888427734,
            9.791568756103516
          ],
          [
            -84.1059112548828,
            9.791571617126465
          ],
          [
            -84.1059112548828,
            9.791571617126465
          ],
          [
            -84.1059112548828,
            9.79157257080078
          ],
          [
            -84.1059112548828,
            9.79157257080078
          ],
          [
            -84.1059112548828,
            9.79157257080078
          ],
          [
            -84.1059112548828,
            9.79157257080078
          ],
          [
            -84.1059112548828,
            9.79157257080078
          ],
          [
            -84.1059112548828,
            9.79157257080078
          ],
          [
            -84.1059112548828,
            9.79157257080078
          ],
          [
            -84.1059112548828,
            9.79157257080078
          ],
          [
            -84.1059112548828,
            9.79157257080078
          ],
          [
            -84.1059112548828,
            9.79157257080078
          ],
          [
            -84.1059112548828,
            9.79157257080078
          ],
          [
            -84.1059112548828,
            9.79157257080078
          ],
          [
            -84.1059112548828,
            9.79157257080078
          ],
          [
            -84.1059112548828,
            9.7915735244751
          ],
          [
            -84.1059112548828,
            9.7915735244751
          ],
          [
            -84.1059112548828,
            9.791576385498047
          ],
          [
            -84.1059112548828,
            9.791576385498047
          ],
          [
            -84.1059112548828,
            9.791576385498047
          ],
          [
            -84.1059112548828,
            9.791576385498047
          ],
          [
            -84.1059112548828,
            9.791576385498047
          ],
          [
            -84.1059112548828,
            9.791576385498047
          ],
          [
            -84.1059112548828,
            9.79158020019531
          ],
          [
            -84.1059112548828,
            9.79158306121826
          ],
          [
            -84.1059112548828,
            9.791587829589844
          ],
          [
            -84.10591888427734,
            9.79159355163574
          ],
          [
            -84.10591888427734,
            9.79159355163574
          ],
          [
            -84.10591888427734,
            9.79159641265869
          ],
          [
            -84.10591888427734,
            9.79159641265869
          ],
          [
            -84.10592651367188,
            9.791601181030273
          ],
          [
            -84.10592651367188,
            9.791601181030273
          ],
          [
            -84.10592651367188,
            9.79160499572754
          ],
          [
            -84.10592651367188,
            9.79160499572754
          ],
          [
            -84.10592651367188,
            9.791608810424805
          ],
          [
            -84.10592651367188,
            9.791608810424805
          ],
          [
            -84.1059341430664,
            9.79161262512207
          ],
          [
            -84.1059341430664,
            9.79161262512207
          ],
          [
            -84.1059341430664,
            9.791616439819336
          ],
          [
            -84.1059341430664,
            9.791616439819336
          ],
          [
            -84.1059341430664,
            9.7916202545166
          ],
          [
            -84.1059341430664,
            9.7916202545166
          ],
          [
            -84.10594177246094,
            9.79162406921387
          ],
          [
            -84.10594177246094,
            9.79162406921387
          ],
          [
            -84.10594177246094,
            9.79162788391113
          ],
          [
            -84.10594177246094,
            9.79162788391113
          ],
          [
            -84.10594177246094,
            9.7916316986084
          ],
          [
            -84.10594177246094,
            9.7916316986084
          ],
          [
            -84.10594177246094,
            9.791635513305664
          ],
          [
            -84.10594177246094,
            9.791635513305664
          ],
          [
            -84.10594177246094,
            9.791635513305664
          ],
          [
            -84.10594177246094,
            9.791635513305664
          ],
          [
            -84.10594177246094,
            9.791635513305664
          ],
          [
            -84.10594177246094,
            9.791635513305664
          ],
          [
            -84.10594177246094,
            9.791635513305664
          ],
          [
            -84.10594177246094,
            9.791635513305664
          ],
          [
            -84.10594177246094,
            9.79163455963135
          ],
          [
            -84.10594177246094,
            9.79163455963135
          ],
          [
            -84.10594177246094,
            9.79163455963135
          ],
          [
            -84.10594177246094,
            9.79163455963135
          ],
          [
            -84.10594177246094,
            9.79163455963135
          ],
          [
            -84.10594177246094,
            9.791637420654297
          ],
          [
            -84.10594177246094,
            9.791637420654297
          ],
          [
            -84.1059341430664,
            9.79164123535156
          ],
          [
            -84.1059341430664,
            9.79164123535156
          ],
          [
            -84.1059341430664,
            9.791646003723145
          ],
          [
            -84.1059341430664,
            9.791646003723145
          ],
          [
            -84.1059341430664,
            9.791650772094727
          ],
          [
            -84.1059341430664,
            9.791650772094727
          ],
          [
            -84.1059341430664,
            9.791656494140625
          ],
          [
            -84.1059341430664,
            9.791656494140625
          ],
          [
            -84.1059341430664,
            9.791662216186523
          ],
          [
            -84.1059341430664,
            9.791662216186523
          ],
          [
            -84.10594177246094,
            9.791666984558105
          ],
          [
            -84.10594177246094,
            9.791666984558105
          ],
          [
            -84.10594177246094,
            9.791672706604004
          ],
          [
            -84.10594177246094,
            9.791672706604004
          ],
          [
            -84.10594177246094,
            9.791677474975586
          ],
          [
            -84.10594177246094,
            9.791677474975586
          ],
          [
            -84.10594177246094,
            9.791677474975586
          ],
          [
            -84.10594177246094,
            9.791677474975586
          ],
          [
            -84.10594940185547,
            9.79168224334717
          ],
          [
            -84.10594940185547,
            9.79168224334717
          ],
          [
            -84.10594940185547,
            9.79168701171875
          ],
          [
            -84.10594940185547,
            9.79169178009033
          ],
          [
            -84.10594940185547,
            9.7916955947876
          ],
          [
            -84.10594940185547,
            9.7916955947876
          ],
          [
            -84.10594940185547,
            9.79170036315918
          ],
          [
            -84.10594940185547,
            9.79170036315918
          ],
          [
            -84.10594940185547,
            9.791704177856445
          ],
          [
            -84.10594940185547,
            9.791704177856445
          ],
          [
            -84.10594940185547,
            9.79170894622803
          ],
          [
            -84.10594940185547,
            9.79170894622803
          ],
          [
            -84.10594940185547,
            9.79171371459961
          ],
          [
            -84.10594940185547,
            9.79171371459961
          ],
          [
            -84.10594940185547,
            9.79171943664551
          ],
          [
            -84.10594940185547,
            9.79171943664551
          ],
          [
            -84.10594940185547,
            9.79172420501709
          ],
          [
            -84.10594940185547,
            9.79172420501709
          ],
          [
            -84.10594940185547,
            9.791728019714355
          ],
          [
            -84.10594940185547,
            9.791728019714355
          ],
          [
            -84.10594940185547,
            9.791733741760254
          ],
          [
            -84.10594940185547,
            9.791733741760254
          ],
          [
            -84.10594940185547,
            9.791735649108887
          ],
          [
            -84.10594940185547,
            9.79173755645752
          ],
          [
            -84.10594940185547,
            9.79173755645752
          ],
          [
            -84.10594940185547,
            9.79173946380615
          ],
          [
            -84.10594940185547,
            9.79173946380615
          ],
          [
            -84.10594940185547,
            9.79173946380615
          ],
          [
            -84.10594940185547,
            9.79173946380615
          ],
          [
            -84.10594940185547,
            9.79173946380615
          ],
          [
            -84.10594940185547,
            9.79173946380615
          ],
          [
            -84.10594940185547,
            9.79173946380615
          ],
          [
            -84.10594940185547,
            9.79173946380615
          ],
          [
            -84.10594940185547,
            9.79174041748047
          ],
          [
            -84.10594940185547,
            9.79174041748047
          ],
          [
            -84.10594940185547,
            9.79174041748047
          ],
          [
            -84.10594940185547,
            9.79174041748047
          ],
          [
            -84.10594177246094,
            9.791741371154785
          ],
          [
            -84.10594177246094,
            9.791741371154785
          ],
          [
            -84.10594177246094,
            9.79174041748047
          ],
          [
            -84.10594177246094,
            9.79174041748047
          ],
          [
            -84.10594177246094,
            9.791741371154785
          ],
          [
            -84.10594177246094,
            9.791741371154785
          ],
          [
            -84.10594177246094,
            9.791741371154785
          ],
          [
            -84.10594177246094,
            9.791741371154785
          ],
          [
            -84.10594177246094,
            9.791741371154785
          ],
          [
            -84.10594177246094,
            9.791741371154785
          ],
          [
            -84.10594177246094,
            9.791741371154785
          ],
          [
            -84.10594177246094,
            9.791741371154785
          ],
          [
            -84.10594177246094,
            9.791741371154785
          ],
          [
            -84.10594177246094,
            9.791741371154785
          ],
          [
            -84.10594177246094,
            9.79174041748047
          ],
          [
            -84.10594177246094,
            9.79174041748047
          ],
          [
            -84.1059341430664,
            9.791738510131836
          ],
          [
            -84.1059341430664,
            9.791738510131836
          ],
          [
            -84.1059341430664,
            9.79173469543457
          ],
          [
            -84.1059341430664,
            9.79173469543457
          ],
          [
            -84.1059341430664,
            9.79173183441162
          ],
          [
            -84.1059341430664,
            9.79173183441162
          ],
          [
            -84.1059341430664,
            9.79173183441162
          ],
          [
            -84.1059341430664,
            9.79173183441162
          ],
          [
            -84.1059341430664,
            9.791728019714355
          ],
          [
            -84.1059341430664,
            9.791728019714355
          ],
          [
            -84.1059341430664,
            9.791723251342773
          ],
          [
            -84.1059341430664,
            9.79171943664551
          ],
          [
            -84.1059341430664,
            9.79171371459961
          ],
          [
            -84.1059341430664,
            9.79171371459961
          ],
          [
            -84.1059341430664,
            9.79170894622803
          ],
          [
            -84.1059341430664,
            9.79170894622803
          ],
          [
            -84.10592651367188,
            9.79170322418213
          ],
          [
            -84.10592651367188,
            9.79169750213623
          ],
          [
            -84.10592651367188,
            9.79169750213623
          ],
          [
            -84.10592651367188,
            9.79169750213623
          ],
          [
            -84.10592651367188,
            9.79169178009033
          ],
          [
            -84.10592651367188,
            9.79168701171875
          ],
          [
            -84.10592651367188,
            9.79168701171875
          ],
          [
            -84.10592651367188,
            9.79168224334717
          ],
          [
            -84.10592651367188,
            9.79168224334717
          ],
          [
            -84.1059341430664,
            9.791677474975586
          ],
          [
            -84.1059341430664,
            9.791677474975586
          ],
          [
            -84.1059341430664,
            9.791672706604004
          ],
          [
            -84.1059341430664,
            9.791672706604004
          ],
          [
            -84.1059341430664,
            9.79166793823242
          ],
          [
            -84.1059341430664,
            9.79166793823242
          ],
          [
            -84.1059341430664,
            9.791662216186523
          ],
          [
            -84.1059341430664,
            9.791662216186523
          ],
          [
            -84.1059341430664,
            9.79165744781494
          ],
          [
            -84.1059341430664,
            9.79165744781494
          ],
          [
            -84.10592651367188,
            9.79165267944336
          ],
          [
            -84.10592651367188,
            9.79165267944336
          ],
          [
            -84.10592651367188,
            9.791650772094727
          ],
          [
            -84.10592651367188,
            9.791650772094727
          ],
          [
            -84.10592651367188,
            9.791650772094727
          ],
          [
            -84.10592651367188,
            9.791650772094727
          ],
          [
            -84.10592651367188,
            9.791650772094727
          ],
          [
            -84.10592651367188,
            9.791650772094727
          ],
          [
            -84.10592651367188,
            9.791650772094727
          ],
          [
            -84.10592651367188,
            9.791650772094727
          ],
          [
            -84.10592651367188,
            9.79164981842041
          ],
          [
            -84.10592651367188,
            9.79164981842041
          ],
          [
            -84.10592651367188,
            9.79164981842041
          ],
          [
            -84.10592651367188,
            9.79164981842041
          ],
          [
            -84.10592651367188,
            9.79164695739746
          ],
          [
            -84.10592651367188,
            9.79164695739746
          ],
          [
            -84.10592651367188,
            9.79164218902588
          ],
          [
            -84.10592651367188,
            9.79164218902588
          ],
          [
            -84.10592651367188,
            9.791637420654297
          ],
          [
            -84.10592651367188,
            9.791637420654297
          ],
          [
            -84.10592651367188,
            9.791632652282715
          ],
          [
            -84.10592651367188,
            9.791632652282715
          ],
          [
            -84.10591888427734,
            9.79162788391113
          ],
          [
            -84.10591888427734,
            9.79162788391113
          ],
          [
            -84.10591888427734,
            9.791622161865234
          ],
          [
            -84.10591888427734,
            9.791622161865234
          ],
          [
            -84.10592651367188,
            9.79161739349365
          ],
          [
            -84.10592651367188,
            9.79161739349365
          ],
          [
            -84.10592651367188,
            9.791611671447754
          ],
          [
            -84.10592651367188,
            9.791611671447754
          ],
          [
            -84.10591888427734,
            9.79160690307617
          ],
          [
            -84.10591888427734,
            9.79160690307617
          ],
          [
            -84.10591888427734,
            9.791601181030273
          ],
          [
            -84.10591888427734,
            9.791601181030273
          ],
          [
            -84.10591888427734,
            9.791601181030273
          ],
          [
            -84.10591888427734,
            9.791601181030273
          ],
          [
            -84.10591888427734,
            9.791601181030273
          ],
          [
            -84.10591888427734,
            9.79159641265869
          ],
          [
            -84.10591888427734,
            9.79159355163574
          ],
          [
            -84.10591888427734,
            9.79159355163574
          ],
          [
            -84.10591888427734,
            9.79159164428711
          ],
          [
            -84.10592651367188,
            9.791589736938477
          ],
          [
            -84.10592651367188,
            9.791589736938477
          ],
          [
            -84.10592651367188,
            9.791589736938477
          ],
          [
            -84.10592651367188,
            9.791589736938477
          ],
          [
            -84.10592651367188,
            9.791589736938477
          ],
          [
            -84.10592651367188,
            9.791589736938477
          ],
          [
            -84.10592651367188,
            9.791589736938477
          ],
          [
            -84.10592651367188,
            9.791589736938477
          ],
          [
            -84.10592651367188,
            9.791589736938477
          ],
          [
            -84.10592651367188,
            9.79158687591553
          ],
          [
            -84.10591888427734,
            9.791582107543945
          ],
          [
            -84.10591888427734,
            9.791582107543945
          ],
          [
            -84.10591888427734,
            9.79157543182373
          ],
          [
            -84.10591888427734,
            9.79157543182373
          ],
          [
            -84.10591888427734,
            9.79157543182373
          ],
          [
            -84.10591888427734,
            9.79157543182373
          ],
          [
            -84.10591888427734,
            9.79157543182373
          ],
          [
            -84.10591888427734,
            9.79157543182373
          ],
          [
            -84.10591888427734,
            9.79157543182373
          ],
          [
            -84.10591888427734,
            9.79157543182373
          ],
          [
            -84.10591888427734,
            9.79156970977783
          ],
          [
            -84.1059112548828,
            9.791563987731934
          ],
          [
            -84.1059112548828,
            9.79156017303467
          ],
          [
            -84.1059112548828,
            9.79156017303467
          ],
          [
            -84.1059112548828,
            9.79155921936035
          ],
          [
            -84.1059112548828,
            9.79155731201172
          ],
          [
            -84.1059112548828,
            9.7915563583374
          ],
          [
            -84.1059112548828,
            9.7915563583374
          ],
          [
            -84.1059112548828,
            9.79155445098877
          ],
          [
            -84.1059112548828,
            9.79155445098877
          ],
          [
            -84.1059112548828,
            9.791553497314453
          ],
          [
            -84.1059112548828,
            9.791553497314453
          ],
          [
            -84.1059112548828,
            9.791552543640137
          ],
          [
            -84.1059112548828,
            9.791552543640137
          ],
          [
            -84.1059112548828,
            9.79155158996582
          ],
          [
            -84.1059112548828,
            9.79155158996582
          ],
          [
            -84.10591888427734,
            9.79154968261719
          ],
          [
            -84.10591888427734,
            9.79154968261719
          ],
          [
            -84.10591888427734,
            9.791544914245605
          ],
          [
            -84.10591888427734,
            9.791544914245605
          ],
          [
            -84.10591888427734,
            9.79154109954834
          ],
          [
            -84.10591888427734,
            9.79154109954834
          ],
          [
            -84.10592651367188,
            9.79153823852539
          ],
          [
            -84.10592651367188,
            9.79153823852539
          ],
          [
            -84.10592651367188,
            9.79153537750244
          ],
          [
            -84.10592651367188,
            9.79153537750244
          ],
          [
            -84.1059341430664,
            9.79153251647949
          ],
          [
            -84.1059341430664,
            9.79153060913086
          ],
          [
            -84.1059341430664,
            9.79153060913086
          ],
          [
            -84.10594177246094,
            9.791529655456543
          ],
          [
            -84.10594177246094,
            9.791529655456543
          ],
          [
            -84.10594177246094,
            9.791529655456543
          ],
          [
            -84.10594177246094,
            9.791529655456543
          ],
          [
            -84.10594177246094,
            9.791529655456543
          ],
          [
            -84.10594177246094,
            9.791529655456543
          ],
          [
            -84.10594177246094,
            9.791529655456543
          ],
          [
            -84.10594940185547,
            9.79153060913086
          ],
          [
            -84.10595703125,
            9.791534423828125
          ],
          [
            -84.10595703125,
            9.791534423828125
          ],
          [
            -84.10595703125,
            9.791534423828125
          ],
          [
            -84.10595703125,
            9.791534423828125
          ],
          [
            -84.10595703125,
            9.791534423828125
          ],
          [
            -84.10595703125,
            9.791534423828125
          ],
          [
            -84.10595703125,
            9.791534423828125
          ],
          [
            -84.10595703125,
            9.791534423828125
          ],
          [
            -84.10595703125,
            9.79153537750244
          ],
          [
            -84.10595703125,
            9.79153537750244
          ],
          [
            -84.10595703125,
            9.79153537750244
          ],
          [
            -84.10595703125,
            9.79153537750244
          ],
          [
            -84.10595703125,
            9.79153537750244
          ],
          [
            -84.10595703125,
            9.79153537750244
          ],
          [
            -84.10594940185547,
            9.791534423828125
          ],
          [
            -84.10594940185547,
            9.791534423828125
          ],
          [
            -84.10594940185547,
            9.791534423828125
          ],
          [
            -84.10594940185547,
            9.791534423828125
          ],
          [
            -84.10594940185547,
            9.791534423828125
          ],
          [
            -84.10594940185547,
            9.791534423828125
          ],
          [
            -84.10594940185547,
            9.79153347015381
          ],
          [
            -84.10594940185547,
            9.79153347015381
          ],
          [
            -84.10595703125,
            9.79153251647949
          ],
          [
            -84.10595703125,
            9.79153251647949
          ],
          [
            -84.10595703125,
            9.791531562805176
          ],
          [
            -84.10595703125,
            9.791531562805176
          ],
          [
            -84.10595703125,
            9.791531562805176
          ],
          [
            -84.10595703125,
            9.791531562805176
          ],
          [
            -84.10595703125,
            9.791531562805176
          ],
          [
            -84.10595703125,
            9.791531562805176
          ],
          [
            -84.10595703125,
            9.791531562805176
          ],
          [
            -84.10595703125,
            9.791531562805176
          ],
          [
            -84.10595703125,
            9.791531562805176
          ],
          [
            -84.10595703125,
            9.791531562805176
          ],
          [
            -84.10595703125,
            9.79153251647949
          ],
          [
            -84.10595703125,
            9.79153251647949
          ],
          [
            -84.10595703125,
            9.79153251647949
          ],
          [
            -84.10595703125,
            9.79153251647949
          ],
          [
            -84.10595703125,
            9.79153251647949
          ],
          [
            -84.10595703125,
            9.79153251647949
          ],
          [
            -84.10596466064453,
            9.79153060913086
          ],
          [
            -84.10596466064453,
            9.791526794433594
          ],
          [
            -84.10596466064453,
            9.791526794433594
          ],
          [
            -84.10597229003906,
            9.79152488708496
          ],
          [
            -84.10597229003906,
            9.79152488708496
          ],
          [
            -84.10597229003906,
            9.79152488708496
          ],
          [
            -84.10597229003906,
            9.79152488708496
          ],
          [
            -84.10597229003906,
            9.79152297973633
          ],
          [
            -84.10597229003906,
            9.79152297973633
          ],
          [
            -84.1059799194336,
            9.79152011871338
          ],
          [
            -84.1059799194336,
            9.79152011871338
          ],
          [
            -84.1059799194336,
            9.79152011871338
          ],
          [
            -84.1059799194336,
            9.79152011871338
          ],
          [
            -84.1059799194336,
            9.79152011871338
          ],
          [
            -84.1059799194336,
            9.79152011871338
          ],
          [
            -84.10598754882812,
            9.79152011871338
          ],
          [
            -84.10598754882812,
            9.79152011871338
          ],
          [
            -84.10598754882812,
            9.79152011871338
          ],
          [
            -84.10598754882812,
            9.79152011871338
          ],
          [
            -84.10598754882812,
            9.79152011871338
          ],
          [
            -84.10598754882812,
            9.79152011871338
          ],
          [
            -84.10598754882812,
            9.79152011871338
          ],
          [
            -84.10598754882812,
            9.79152011871338
          ],
          [
            -84.10598754882812,
            9.79152011871338
          ],
          [
            -84.10598754882812,
            9.79152011871338
          ],
          [
            -84.10598754882812,
            9.79152011871338
          ],
          [
            -84.10598754882812,
            9.79152011871338
          ],
          [
            -84.10598754882812,
            9.79152011871338
          ],
          [
            -84.10598754882812,
            9.79151916503906
          ],
          [
            -84.10598754882812,
            9.79151916503906
          ],
          [
            -84.10598754882812,
            9.79151916503906
          ],
          [
            -84.10598754882812,
            9.79151916503906
          ],
          [
            -84.10598754882812,
            9.79151916503906
          ],
          [
            -84.10598754882812,
            9.79152011871338
          ],
          [
            -84.10598754882812,
            9.79152011871338
          ],
          [
            -84.10598754882812,
            9.79152011871338
          ],
          [
            -84.10598754882812,
            9.79152011871338
          ]
        ]
      }
    },
    {
      "type": "Feature",
      "properties": {
        "sequence": 1,
        "motivo": "manual"
      },
      "geometry": {
        "type": "Point",
        "coordinates": [
          -84.1059112548828,
          9.791563987731934
        ]
      }
    },
    {
      "type": "Feature",
      "properties": {
        "sequence": 2,
        "motivo": "interpolado"
      },
      "geometry": {
        "type": "Point",
        "coordinates": [
          -84.10593032836914,
          9.791555881500244
        ]
      }
    },
    {
      "type": "Feature",
      "properties": {
        "sequence": 3,
        "motivo": "manual"
      },
      "geometry": {
        "type": "Point",
        "coordinates": [
          -84.10594940185547,
          9.791547775268555
        ]
      }
    },
    {
      "type": "Feature",
      "properties": {
        "sequence": 4,
        "motivo": "interpolado"
      },
      "geometry": {
        "type": "Point",
        "coordinates": [
          -84.10593032836914,
          9.791560173034668
        ]
      }
    },
    {
      "type": "Feature",
      "properties": {
        "sequence": 5,
        "motivo": "manual"
      },
      "geometry": {
        "type": "Point",
        "coordinates": [
          -84.1059112548828,
          9.79157257080078
        ]
      }
    },
    {
      "type": "Feature",
      "properties": {
        "sequence": 6,
        "motivo": "interpolado"
      },
      "geometry": {
        "type": "Point",
        "coordinates": [
          -84.10592651367188,
          9.791604042053223
        ]
      }
    },
    {
      "type": "Feature",
      "properties": {
        "sequence": 7,
        "motivo": "manual"
      },
      "geometry": {
        "type": "Point",
        "coordinates": [
          -84.10594177246094,
          9.791635513305664
        ]
      }
    },
    {
      "type": "Feature",
      "properties": {
        "sequence": 8,
        "motivo": "interpolado"
      },
      "geometry": {
        "type": "Point",
        "coordinates": [
          -84.10594431559245,
          9.791670163472492
        ]
      }
    },
    {
      "type": "Feature",
      "properties": {
        "sequence": 9,
        "motivo": "interpolado"
      },
      "geometry": {
        "type": "Point",
        "coordinates": [
          -84.10594685872395,
          9.791704813639322
        ]
      }
    },
    {
      "type": "Feature",
      "properties": {
        "sequence": 10,
        "motivo": "manual"
      },
      "geometry": {
        "type": "Point",
        "coordinates": [
          -84.10594940185547,
          9.79173946380615
        ]
      }
    },
    {
      "type": "Feature",
      "properties": {
        "sequence": 11,
        "motivo": "interpolado"
      },
      "geometry": {
        "type": "Point",
        "coordinates": [
          -84.10594177246094,
          9.791709899902342
        ]
      }
    },
    {
      "type": "Feature",
      "properties": {
        "sequence": 12,
        "motivo": "interpolado"
      },
      "geometry": {
        "type": "Point",
        "coordinates": [
          -84.1059341430664,
          9.791680335998535
        ]
      }
    },
    {
      "type": "Feature",
      "properties": {
        "sequence": 13,
        "motivo": "manual"
      },
      "geometry": {
        "type": "Point",
        "coordinates": [
          -84.10592651367188,
          9.791650772094727
        ]
      }
    },
    {
      "type": "Feature",
      "properties": {
        "sequence": 14,
        "motivo": "interpolado"
      },
      "geometry": {
        "type": "Point",
        "coordinates": [
          -84.10592142740884,
          9.791619300842285
        ]
      }
    },
    {
      "type": "Feature",
      "properties": {
        "sequence": 15,
        "motivo": "interpolado"
      },
      "geometry": {
        "type": "Point",
        "coordinates": [
          -84.10591634114583,
          9.791587829589842
        ]
      }
    },
    {
      "type": "Feature",
      "properties": {
        "sequence": 16,
        "motivo": "manual"
      },
      "geometry": {
        "type": "Point",
        "coordinates": [
          -84.1059112548828,
          9.7915563583374
        ]
      }
    },
    {
      "type": "Feature",
      "properties": {
        "sequence": 17,
        "motivo": "interpolado"
      },
      "geometry": {
        "type": "Point",
        "coordinates": [
          -84.1059341430664,
          9.791543960571289
        ]
      }
    },
    {
      "type": "Feature",
      "properties": {
        "sequence": 18,
        "motivo": "manual"
      },
      "geometry": {
        "type": "Point",
        "coordinates": [
          -84.10595703125,
          9.791531562805176
        ]
      }
    },
    {
      "type": "Feature",
      "properties": {
        "sequence": 19,
        "motivo": "manual"
      },
      "geometry": {
        "type": "Point",
        "coordinates": [
          -84.10598754882812,
          9.79152011871338
        ]
      }
    }
  ]
}