{
  "type": "FeatureCollection",
  "features": [
    {
      "type": "Feature",
      "properties": {
        "tipo": "track"
      },
      "geometry": {
        "type": "LineString",
        "coordinates": [
          [
            -98.81455993652344,
            19.5703182220459
          ],
          [
            -98.81455993652344,
            19.5703182220459
          ],
          [
            -98.81455993652344,
            19.5703182220459
          ],
          [
            -98.81455993652344,
            19.5703182220459
          ],
          [
            -98.81455993652344,
            19.5703182220459
          ],
          [
            -98.81455993652344,
            19.5703182220459
          ],
          [
            -98.81455993652344,
            19.5703182220459
          ],
          [
            -98.81455993652344,
            19.5703182220459
          ],
          [
            -98.81455993652344,
            19.5703182220459
          ],
          [
            -98.81455993652344,
            19.570316314697266
          ],
          [
            -98.81455993652344,
            19.570316314697266
          ],
          [
            -98.81455993652344,
            19.570314407348633
          ],
          [
            -98.81455993652344,
            19.570314407348633
          ],
          [
            -98.81455993652344,
            19.570310592651367
          ],
          [
            -98.81455993652344,
            19.570310592651367
          ],
          [
            -98.81456756591797,
            19.570308685302734
          ],
          [
            -98.81456756591797,
            19.570308685302734
          ],
          [
            -98.81456756591797,
            19.5703067779541
          ],
          [
            -98.81456756591797,
            19.5703067779541
          ],
          [
            -98.81456756591797,
            19.570302963256836
          ],
          [
            -98.81456756591797,
            19.570302963256836
          ],
          [
            -98.8145751953125,
            19.57029914855957
          ],
          [
            -98.8145751953125,
            19.57029914855957
          ],
          [
            -98.8145751953125,
            19.570297241210938
          ],
          [
            -98.8145751953125,
            19.570297241210938
          ],
          [
            -98.8145751953125,
            19.570293426513672
          ],
          [
            -98.8145751953125,
            19.570293426513672
          ],
          [
            -98.8145751953125,
            19.57029151916504
          ],
          [
            -98.8145751953125,
            19.57029151916504
          ],
          [
            -98.81458282470703,
            19.570287704467773
          ],
          [
            -98.81458282470703,
            19.570287704467773
          ],
          [
            -98.81458282470703,
            19.57028579711914
          ],
          [
            -98.81458282470703,
            19.57028579711914
          ],
          [
            -98.81458282470703,
            19.57028579711914
          ],
          [
            -98.81458282470703,
            19.57028579711914
          ],
          [
            -98.81458282470703,
            19.57028579711914
          ],
          [
            -98.81458282470703,
            19.57028579711914
          ],
          [
            -98.81458282470703,
            19.57028579711914
          ],
          [
            -98.81458282470703,
            19.57028579711914
          ],
          [
            -98.81458282470703,
            19.570283889770508
          ],
          [
            -98.81458282470703,
            19.570281982421875
          ],
          [
            -98.81458282470703,
            19.57027816772461
          ],
          [
            -98.81459045410156,
            19.570274353027344
          ],
          [
            -98.81459045410156,
            19.570274353027344
          ],
          [
            -98.81459045410156,
            19.57027244567871
          ],
          [
            -98.81459045410156,
            19.57027244567871
          ],
          [
            -98.81459045410156,
            19.57027244567871
          ],
          [
            -98.81459045410156,
            19.57027244567871
          ],
          [
            -98.81459045410156,
            19.570270538330078
          ],
          [
            -98.81459045410156,
            19.570266723632812
          ],
          [
            -98.81459045410156,
            19.570266723632812
          ],
          [
            -98.81459045410156,
            19.570266723632812
          ],
          [
            -98.81459045410156,
            19.570266723632812
          ],
          [
            -98.81459045410156,
            19.570266723632812
          ],
          [
            -98.81459045410156,
            19.570266723632812
          ],
          [
            -98.81459045410156,
            19.570266723632812
          ],
          [
            -98.81459045410156,
            19.570266723632812
          ],
          [
            -98.81459045410156,
            19.570266723632812
          ],
          [
            -98.81459045410156,
            19.57026481628418
          ],
          [
            -98.81459045410156,
            19.57026481628418
          ],
          [
            -98.81459045410156,
            19.57026481628418
          ],
          [
            -98.81459045410156,
            19.57026481628418
          ],
          [
            -98.81459045410156,
            19.57026481628418
          ],
          [
            -98.81459045410156,
            19.57026481628418
          ],
          [
            -98.81459045410156,
            19.570262908935547
          ],
          [
            -98.81459045410156,
            19.570262908935547
          ],
          [
            -98.81459045410156,
            19.570262908935547
          ],
          [
            -98.81459045410156,
            19.570262908935547
          ],
          [
            -98.81459045410156,
            19.570261001586914
          ],
          [
            -98.81459045410156,
            19.570261001586914
          ],
          [
            -98.81459045410156,
            19.570261001586914
          ],
          [
            -98.81459045410156,
            19.570261001586914
          ],
          [
            -98.81459045410156,
            19.570261001586914
          ],
          [
            -98.81459045410156,
            19.570261001586914
          ],
          [
            -98.81459045410156,
            19.570261001586914
          ],
          [
            -98.81459045410156,
            19.570261001586914
          ],
          [
            -98.81459045410156,
            19.570261001586914
          ],
          [
            -98.81459045410156,
            19.570261001586914
          ],
          [
            -98.81459045410156,
            19.57025909423828
          ],
          [
            -98.81459045410156,
            19.57025909423828
          ],
          [
            -98.81459045410156,
            19.57025909423828
          ],
          [
            -98.81459045410156,
            19.57025909423828
          ],
          [
            -98.81459045410156,
            19.57025909423828
          ],
          [
            -98.81459045410156,
            19.57025909423828
          ],
          [
            -98.81459045410156,
            19.57025909423828
          ],
          [
            -98.81459045410156,
            19.57025909423828
          ],
          [
            -98.81459045410156,
            19.57025909423828
          ],
          [
            -98.81459045410156,
            19.57025909423828
          ],
          [
            -98.81459045410156,
            19.57025909423828
          ],
          [
            -98.81459045410156,
            19.57025909423828
          ],
          [
            -98.81459045410156,
            19.57025909423828
          ],
          [
            -98.81459045410156,
            19.57025718688965
          ],
          [
            -98.81459045410156,
            19.57025718688965
          ],
          [
            -98.81459045410156,
            19.57025718688965
          ],
          [
            -98.81459045410156,
            19.57025718688965
          ],
          [
            -98.81459045410156,
            19.57025718688965
          ],
          [
            -98.81459045410156,
            19.57025718688965
          ],
          [
            -98.81459045410156,
            19.57025718688965
          ],
          [
            -98.81459045410156,
            19.57025718688965
          ],
          [
            -98.81459045410156,
            19.570255279541016
          ],
          [
            -98.81459045410156,
            19.570255279541016
          ],
          [
            -98.81459045410156,
            19.570255279541016
          ],
          [
            -98.81459045410156,
            19.570255279541016
          ],
          [
            -98.81459045410156,
            19.570255279541016
          ],
          [
            -98.81459045410156,
            19.570255279541016
          ]
        ]
      }
    },
    {
      "type": "Feature",
      "properties": {
        "sequence": 1,
        "motivo": "inicio"
      },
      "geometry": {
        "type": "Point",
        "coordinates": [
          -98.81455993652344,
          19.5703182220459
        ]
      }
    },
    {
      "type": "Feature",
      "properties": {
        "sequence": 2,
        "motivo": "espaciado"
      },
      "geometry": {
        "type": "Point",
        "coordinates": [
          -98.81456756591797,
          19.570308685302734
        ]
      }
    },
    {
      "type": "Feature",
      "properties": {
        "sequence": 3,
        "motivo": "curva"
      },
      "geometry": {
        "type": "Point",
        "coordinates": [
          -98.81456756591797,
          19.570302963256836
        ]
      }
    },
    {
      "type": "Feature",
      "properties": {
        "sequence": 4,
        "motivo": "curva"
      },
      "geometry": {
        "type": "Point",
        "coordinates": [
          -98.8145751953125,
          19.57029914855957
        ]
      }
    },
    {
      "type": "Feature",
      "properties": {
        "sequence": 5,
        "motivo": "curva"
      },
      "geometry": {
        "type": "Point",
        "coordinates": [
          -98.8145751953125,
          19.570293426513672
        ]
      }
    },
    {
      "type": "Feature",
      "properties": {
        "sequence": 6,
        "motivo": "espaciado"
      },
      "geometry": {
        "type": "Point",
        "coordinates": [
          -98.81458282470703,
          19.570287704467773
        ]
      }
    },
    {
      "type": "Feature",
      "properties": {
        "sequence": 7,
        "motivo": "curva"
      },
      "geometry": {
        "type": "Point",
        "coordinates": [
          -98.81458282470703,
          19.570283889770508
        ]
      }
    },
    {
      "type": "Feature",
      "properties": {
        "sequence": 8,
        "motivo": "espaciado"
      },
      "geometry": {
        "type": "Point",
        "coordinates": [
          -98.81459045410156,
          19.570274353027344
        ]
      }
    },
    {
      "type": "Feature",
      "properties": {
        "sequence": 9,
        "motivo": "curva"
      },
      "geometry": {
        "type": "Point",
        "coordinates": [
          -98.81459045410156,
          19.570270538330078
        ]
      }
    },
    {
      "type": "Feature",
      "properties": {
        "sequence": 10,
        "motivo": "espaciado"
      },
      "geometry": {
        "type": "Point",
        "coordinates": [
          -98.81459045410156,
          19.570261001586914
        ]
      }
    }
  ]
}