{
  "type": "FeatureCollection",
  "features": [
    {
      "type": "Feature",
      "properties": {
        "tipo": "track"
      },
      "geometry": {
        "type": "LineString",
        "coordinates": [
          [
            -98.81461334228516,
            19.570219039916992
          ],
          [
            -98.81461334228516,
            19.570219039916992
          ],
          [
            -98.81461334228516,
            19.570219039916992
          ],
          [
            -98.81461334228516,
            19.570219039916992
          ],
          [
            -98.81461334228516,
            19.570219039916992
          ],
          [
            -98.81461334228516,
            19.570219039916992
          ],
          [
            -98.81461334228516,
            19.570219039916992
          ],
          [
            -98.81461334228516,
            19.570219039916992
          ],
          [
            -98.81461334228516,
            19.570219039916992
          ],
          [
            -98.81461334228516,
            19.570219039916992
          ],
          [
            -98.81461334228516,
            19.570219039916992
          ],
          [
            -98.81461334228516,
            19.570219039916992
          ],
          [
            -98.81461334228516,
            19.570219039916992
          ],
          [
            -98.81461334228516,
            19.570219039916992
          ],
          [
            -98.81461334228516,
            19.570219039916992
          ],
          [
            -98.81461334228516,
            19.570219039916992
          ],
          [
            -98.81461334228516,
            19.570219039916992
          ],
          [
            -98.81461334228516,
            19.570219039916992
          ],
          [
            -98.81461334228516,
            19.570219039916992
          ],
          [
            -98.81461334228516,
            19.570219039916992
          ],
          [
            -98.81461334228516,
            19.570219039916992
          ],
          [
            -98.81461334228516,
            19.570219039916992
          ],
          [
            -98.81461334228516,
            19.570219039916992
          ],
          [
            -98.81461334228516,
            19.570219039916992
          ],
          [
            -98.81461334228516,
            19.570219039916992
          ],
          [
            -98.81461334228516,
            19.570219039916992
          ],
          [
            -98.81461334228516,
            19.570219039916992
          ],
          [
            -98.81461334228516,
            19.570220947265625
          ],
          [
            -98.81461334228516,
            19.570220947265625
          ],
          [
            -98.81461334228516,
            19.570220947265625
          ],
          [
            -98.81461334228516,
            19.570220947265625
          ],
          [
            -98.81461334228516,
            19.570220947265625
          ],
          [
            -98.81461334228516,
            19.570220947265625
          ],
          [
            -98.81461334228516,
            19.570220947265625
          ],
          [
            -98.81461334228516,
            19.570220947265625
          ],
          [
            -98.81461334228516,
            19.570220947265625
          ],
          [
            -98.81461334228516,
            19.570222854614258
          ],
          [
            -98.81461334228516,
            19.570222854614258
          ],
          [
            -98.81461334228516,
            19.570222854614258
          ],
          [
            -98.81461334228516,
            19.570222854614258
          ],
          [
            -98.81461334228516,
            19.570222854614258
          ],
          [
            -98.81461334228516,
            19.570222854614258
          ],
          [
            -98.81461334228516,
            19.570222854614258
          ],
          [
            -98.81461334228516,
            19.570222854614258
          ],
          [
            -98.81461334228516,
            19.570222854614258
          ],
          [
            -98.81461334228516,
            19.57022476196289
          ],
          [
            -98.81461334228516,
            19.57022476196289
          ],
          [
            -98.81461334228516,
            19.57022476196289
          ],
          [
            -98.81461334228516,
            19.57022476196289
          ],
          [
            -98.81461334228516,
            19.57022476196289
          ],
          [
            -98.81461334228516,
            19.57022476196289
          ],
          [
            -98.81461334228516,
            19.57022476196289
          ],
          [
            -98.81461334228516,
            19.57022476196289
          ],
          [
            -98.81461334228516,
            19.57022476196289
          ],
          [
            -98.81461334228516,
            19.57022476196289
          ],
          [
            -98.81461334228516,
            19.57022476196289
          ],
          [
            -98.81461334228516,
            19.57022476196289
          ],
          [
            -98.81461334228516,
            19.57022476196289
          ],
          [
            -98.81461334228516,
            19.57022476196289
          ],
          [
            -98.81461334228516,
            19.57022476196289
          ],
          [
            -98.81461334228516,
            19.57022476196289
          ],
          [
            -98.81461334228516,
            19.57022476196289
          ],
          [
            -98.81461334228516,
            19.570226669311523
          ],
          [
            -98.81461334228516,
            19.570228576660156
          ],
          [
            -98.81461334228516,
            19.570228576660156
          ],
          [
            -98.81461334228516,
            19.57023048400879
          ],
          [
            -98.81461334228516,
            19.57023048400879
          ],
          [
            -98.81461334228516,
            19.570232391357422
          ],
          [
            -98.81461334228516,
            19.570232391357422
          ],
          [
            -98.81460571289062,
            19.570232391357422
          ],
          [
            -98.81460571289062,
            19.570232391357422
          ],
          [
            -98.81460571289062,
            19.570234298706055
          ],
          [
            -98.81460571289062,
            19.570234298706055
          ],
          [
            -98.81460571289062,
            19.570234298706055
          ],
          [
            -98.81460571289062,
            19.570234298706055
          ],
          [
            -98.81460571289062,
            19.570236206054688
          ],
          [
            -98.81460571289062,
            19.570236206054688
          ],
          [
            -98.81460571289062,
            19.570236206054688
          ],
          [
            -98.81460571289062,
            19.570236206054688
          ],
          [
            -98.81460571289062,
            19.57023811340332
          ],
          [
            -98.81460571289062,
            19.57023811340332
          ],
          [
            -98.81460571289062,
            19.57023811340332
          ],
          [
            -98.81460571289062,
            19.57023811340332
          ],
          [
            -98.8145980834961,
            19.570240020751953
          ],
          [
            -98.8145980834961,
            19.570240020751953
          ],
          [
            -98.8145980834961,
            19.570241928100586
          ],
          [
            -98.8145980834961,
            19.570241928100586
          ],
          [
            -98.8145980834961,
            19.570241928100586
          ],
          [
            -98.8145980834961,
            19.57024383544922
          ],
          [
            -98.8145980834961,
            19.57024383544922
          ],
          [
            -98.8145980834961,
            19.57024383544922
          ],
          [
            -98.8145980834961,
            19.57024383544922
          ],
          [
            -98.8145980834961,
            19.57024383544922
          ],
          [
            -98.8145980834961,
            19.57024383544922
          ],
          [
            -98.8145980834961,
            19.57024383544922
          ],
          [
            -98.8145980834961,
            19.57024383544922
          ],
          [
            -98.8145980834961,
            19.57024383544922
          ],
          [
            -98.8145980834961,
            19.57024383544922
          ],
          [
            -98.8145980834961,
            19.57024383544922
          ],
          [
            -98.8145980834961,
            19.57024383544922
          ],
          [
            -98.8145980834961,
            19.57024383544922
          ],
          [
            -98.8145980834961,
            19.57024383544922
          ],
          [
            -98.8145980834961,
            19.57024383544922
          ],
          [
            -98.8145980834961,
            19.57024574279785
          ],
          [
            -98.8145980834961,
            19.57024574279785
          ],
          [
            -98.8145980834961,
            19.57024574279785
          ],
          [
            -98.8145980834961,
            19.57024574279785
          ],
          [
            -98.8145980834961,
            19.57024574279785
          ],
          [
            -98.8145980834961,
            19.57024574279785
          ],
          [
            -98.8145980834961,
            19.57024574279785
          ],
          [
            -98.8145980834961,
            19.57024574279785
          ],
          [
            -98.8145980834961,
            19.57024574279785
          ],
          [
            -98.8145980834961,
            19.57024574279785
          ],
          [
            -98.8145980834961,
            19.57024574279785
          ],
          [
            -98.8145980834961,
            19.57024574279785
          ],
          [
            -98.8145980834961,
            19.570247650146484
          ],
          [
            -98.8145980834961,
            19.570247650146484
          ],
          [
            -98.8145980834961,
            19.570247650146484
          ],
          [
            -98.8145980834961,
            19.570247650146484
          ],
          [
            -98.8145980834961,
            19.570247650146484
          ],
          [
            -98.8145980834961,
            19.570247650146484
          ],
          [
            -98.8145980834961,
            19.570249557495117
          ],
          [
            -98.8145980834961,
            19.570249557495117
          ],
          [
            -98.8145980834961,
            19.570249557495117
          ],
          [
            -98.8145980834961,
            19.570249557495117
          ],
          [
            -98.8145980834961,
            19.570249557495117
          ],
          [
            -98.8145980834961,
            19.570249557495117
          ],
          [
            -98.8145980834961,
            19.570249557495117
          ],
          [
            -98.8145980834961,
            19.570249557495117
          ],
          [
            -98.8145980834961,
            19.570249557495117
          ],
          [
            -98.8145980834961,
            19.570249557495117
          ],
          [
            -98.8145980834961,
            19.57025146484375
          ],
          [
            -98.8145980834961,
            19.57025146484375
          ],
          [
            -98.81459045410156,
            19.570253372192383
          ],
          [
            -98.81459045410156,
            19.570253372192383
          ],
          [
            -98.81459045410156,
            19.570255279541016
          ],
          [
            -98.81459045410156,
            19.570255279541016
          ],
          [
            -98.81459045410156,
            19.570255279541016
          ],
          [
            -98.81459045410156,
            19.570255279541016
          ],
          [
            -98.81459045410156,
            19.570255279541016
          ],
          [
            -98.81459045410156,
            19.570255279541016
          ],
          [
            -98.81459045410156,
            19.570255279541016
          ],
          [
            -98.81459045410156,
            19.570255279541016
          ],
          [
            -98.81459045410156,
            19.570255279541016
          ],
          [
            -98.81459045410156,
            19.570255279541016
          ],
          [
            -98.81459045410156,
            19.570255279541016
          ],
          [
            -98.81459045410156,
            19.57025718688965
          ],
          [
            -98.81459045410156,
            19.57025718688965
          ],
          [
            -98.81458282470703,
            19.570261001586914
          ],
          [
            -98.81458282470703,
            19.570261001586914
          ],
          [
            -98.81458282470703,
            19.57026481628418
          ],
          [
            -98.81458282470703,
            19.57026481628418
          ],
          [
            -98.81458282470703,
            19.570266723632812
          ],
          [
            -98.81458282470703,
            19.570266723632812
          ],
          [
            -98.81458282470703,
            19.570266723632812
          ],
          [
            -98.81458282470703,
            19.570266723632812
          ],
          [
            -98.81458282470703,
            19.570270538330078
          ],
          [
            -98.8145751953125,
            19.57027244567871
          ],
          [
            -98.8145751953125,
            19.570274353027344
          ],
          [
            -98.8145751953125,
            19.57027816772461
          ],
          [
            -98.8145751953125,
            19.57027816772461
          ],
          [
            -98.8145751953125,
            19.570280075073242
          ],
          [
            -98.8145751953125,
            19.570280075073242
          ],
          [
            -98.81456756591797,
            19.570283889770508
          ],
          [
            -98.81456756591797,
            19.570283889770508
          ],
          [
            -98.81456756591797,
            19.57028579711914
          ],
          [
            -98.81456756591797,
            19.57028579711914
          ],
          [
            -98.81456756591797,
            19.570287704467773
          ],
          [
            -98.81456756591797,
            19.570287704467773
          ],
          [
            -98.81456756591797,
            19.570287704467773
          ],
          [
            -98.81456756591797,
            19.570287704467773
          ],
          [
            -98.81456756591797,
            19.570287704467773
          ],
          [
            -98.81456756591797,
            19.570287704467773
          ],
          [
            -98.81455993652344,
            19.57029151916504
          ],
          [
            -98.81455993652344,
            19.57029151916504
          ],
          [
            -98.81455993652344,
            19.570293426513672
          ],
          [
            -98.81455993652344,
            19.570293426513672
          ],
          [
            -98.81455993652344,
            19.5702953338623
          ],
          [
            -98.81455993652344,
            19.5702953338623
          ],
          [
            -98.81455993652344,
            19.57029914855957
          ],
          [
            -98.81455993652344,
            19.57029914855957
          ],
          [
            -98.81455993652344,
            19.5703010559082
          ],
          [
            -98.81455993652344,
            19.5703010559082
          ],
          [
            -98.81455993652344,
            19.5703010559082
          ],
          [
            -98.81455993652344,
            19.5703010559082
          ],
          [
            -98.81455993652344,
            19.5703010559082
          ],
          [
            -98.81455993652344,
            19.5703010559082
          ],
          [
            -98.81455993652344,
            19.5703010559082
          ],
          [
            -98.81455993652344,
            19.5703010559082
          ],
          [
            -98.81455993652344,
            19.5703010559082
          ],
          [
            -98.81455993652344,
            19.5703010559082
          ],
          [
            -98.81455993652344,
            19.5703010559082
          ],
          [
            -98.81455993652344,
            19.5703010559082
          ],
          [
            -98.81455993652344,
            19.5703010559082
          ],
          [
            -98.81455993652344,
            19.5703010559082
          ],
          [
            -98.81455993652344,
            19.5703010559082
          ],
          [
            -98.81455993652344,
            19.5703010559082
          ],
          [
            -98.81455993652344,
            19.5703010559082
          ],
          [
            -98.81455993652344,
            19.570302963256836
          ],
          [
            -98.81455993652344,
            19.570302963256836
          ],
          [
            -98.8145523071289,
            19.57030487060547
          ],
          [
            -98.8145523071289,
            19.57030487060547
          ],
          [
            -98.8145523071289,
            19.5703067779541
          ],
          [
            -98.8145523071289,
            19.5703067779541
          ],
          [
            -98.8145523071289,
            19.5703067779541
          ],
          [
            -98.8145523071289,
            19.5703067779541
          ],
          [
            -98.8145523071289,
            19.570308685302734
          ],
          [
            -98.8145523071289,
            19.570308685302734
          ],
          [
            -98.8145523071289,
            19.570308685302734
          ],
          [
            -98.8145523071289,
            19.570308685302734
          ],
          [
            -98.8145523071289,
            19.570308685302734
          ],
          [
            -98.8145523071289,
            19.570308685302734
          ],
          [
            -98.8145523071289,
            19.570308685302734
          ],
          [
            -98.8145523071289,
            19.570308685302734
          ],
          [
            -98.8145523071289,
            19.570308685302734
          ],
          [
            -98.8145523071289,
            19.570308685302734
          ],
          [
            -98.8145523071289,
            19.570308685302734
          ],
          [
            -98.8145523071289,
            19.570308685302734
          ],
          [
            -98.8145523071289,
            19.570308685302734
          ],
          [
            -98.8145523071289,
            19.570308685302734
          ],
          [
            -98.8145523071289,
            19.570308685302734
          ],
          [
            -98.8145523071289,
            19.570310592651367
          ],
          [
            -98.8145523071289,
            19.570310592651367
          ],
          [
            -98.8145523071289,
            19.570310592651367
          ],
          [
            -98.8145523071289,
            19.570310592651367
          ],
          [
            -98.81455993652344,
            19.570310592651367
          ],
          [
            -98.81455993652344,
            19.570310592651367
          ],
          [
            -98.81455993652344,
            19.570310592651367
          ],
          [
            -98.81455993652344,
            19.570310592651367
          ],
          [
            -98.81455993652344,
            19.570310592651367
          ],
          [
            -98.81455993652344,
            19.570310592651367
          ]
        ]
      }
    },
    {
      "type": "Feature",
      "properties": {
        "sequence": 1,
        "motivo": "inicio"
      },
      "geometry": {
        "type": "Point",
        "coordinates": [
          -98.81461334228516,
          19.570219039916992
        ]
      }
    },
    {
      "type": "Feature",
      "properties": {
        "sequence": 2,
        "motivo": "espaciado"
      },
      "geometry": {
        "type": "Point",
        "coordinates": [
          -98.81461334228516,
          19.570228576660156
        ]
      }
    },
    {
      "type": "Feature",
      "properties": {
        "sequence": 3,
        "motivo": "curva"
      },
      "geometry": {
        "type": "Point",
        "coordinates": [
          -98.81460571289062,
          19.570232391357422
        ]
      }
    },
    {
      "type": "Feature",
      "properties": {
        "sequence": 4,
        "motivo": "curva"
      },
      "geometry": {
        "type": "Point",
        "coordinates": [
          -98.81460571289062,
          19.570236206054688
        ]
      }
    },
    {
      "type": "Feature",
      "properties": {
        "sequence": 5,
        "motivo": "curva"
      },
      "geometry": {
        "type": "Point",
        "coordinates": [
          -98.8145980834961,
          19.570240020751953
        ]
      }
    },
    {
      "type": "Feature",
      "properties": {
        "sequence": 6,
        "motivo": "curva"
      },
      "geometry": {
        "type": "Point",
        "coordinates": [
          -98.8145980834961,
          19.57024383544922
        ]
      }
    },
    {
      "type": "Feature",
      "properties": {
        "sequence": 7,
        "motivo": "espaciado"
      },
      "geometry": {
        "type": "Point",
        "coordinates": [
          -98.81459045410156,
          19.570253372192383
        ]
      }
    },
    {
      "type": "Feature",
      "properties": {
        "sequence": 8,
        "motivo": "curva"
      },
      "geometry": {
        "type": "Point",
        "coordinates": [
          -98.81459045410156,
          19.57025718688965
        ]
      }
    },
    {
      "type": "Feature",
      "properties": {
        "sequence": 9,
        "motivo": "curva"
      },
      "geometry": {
        "type": "Point",
        "coordinates": [
          -98.81458282470703,
          19.570261001586914
        ]
      }
    },
    {
      "type": "Feature",
      "properties": {
        "sequence": 10,
        "motivo": "curva"
      },
      "geometry": {
        "type": "Point",
        "coordinates": [
          -98.81458282470703,
          19.57026481628418
        ]
      }
    },
    {
      "type": "Feature",
      "properties": {
        "sequence": 11,
        "motivo": "espaciado"
      },
      "geometry": {
        "type": "Point",
        "coordinates": [
          -98.8145751953125,
          19.57027244567871
        ]
      }
    },
    {
      "type": "Feature",
      "properties": {
        "sequence": 12,
        "motivo": "curva"
      },
      "geometry": {
        "type": "Point",
        "coordinates": [
          -98.8145751953125,
          19.57027816772461
        ]
      }
    },
    {
      "type": "Feature",
      "properties": {
        "sequence": 13,
        "motivo": "espaciado"
      },
      "geometry": {
        "type": "Point",
        "coordinates": [
          -98.81456756591797,
          19.570283889770508
        ]
      }
    },
    {
      "type": "Feature",
      "properties": {
        "sequence": 14,
        "motivo": "curva"
      },
      "geometry": {
        "type": "Point",
        "coordinates": [
          -98.81456756591797,
          19.570287704467773
        ]
      }
    },
    {
      "type": "Feature",
      "properties": {
        "sequence": 15,
        "motivo": "curva"
      },
      "geometry": {
        "type": "Point",
        "coordinates": [
          -98.81455993652344,
          19.57029151916504
        ]
      }
    },
    {
      "type": "Feature",
      "properties": {
        "sequence": 16,
        "motivo": "curva"
      },
      "geometry": {
        "type": "Point",
        "coordinates": [
          -98.81455993652344,
          19.5702953338623
        ]
      }
    },
    {
      "type": "Feature",
      "properties": {
        "sequence": 17,
        "motivo": "espaciado"
      },
      "geometry": {
        "type": "Point",
        "coordinates": [
          -98.8145523071289,
          19.57030487060547
        ]
      }
    },
    {
      "type": "Feature",
      "properties": {
        "sequence": 18,
        "motivo": "curva"
      },
      "geometry": {
        "type": "Point",
        "coordinates": [
          -98.8145523071289,
          19.570308685302734
        ]
      }
    },
    {
      "type": "Feature",
      "properties": {
        "sequence": 19,
        "motivo": "curva"
      },
      "geometry": {
        "type": "Point",
        "coordinates": [
          -98.81455993652344,
          19.570310592651367
        ]
      }
    }
  ]
}