{
  "type": "FeatureCollection",
  "features": [
    {
      "type": "Feature",
      "properties": {
        "tipo": "track"
      },
      "geometry": {
        "type": "LineString",
        "coordinates": [
          [
            -98.81443786621094,
            19.570484161376953
          ],
          [
            -98.81443786621094,
            19.570486068725586
          ],
          [
            -98.81443786621094,
            19.570486068725586
          ],
          [
            -98.81443786621094,
            19.570486068725586
          ],
          [
            -98.81443786621094,
            19.570486068725586
          ],
          [
            -98.81443786621094,
            19.570486068725586
          ],
          [
            -98.81443786621094,
            19.570486068725586
          ],
          [
            -98.81443786621094,
            19.570486068725586
          ],
          [
            -98.81443786621094,
            19.570486068725586
          ],
          [
            -98.81443786621094,
            19.57048797607422
          ],
          [
            -98.81443786621094,
            19.57048797607422
          ],
          [
            -98.81443786621094,
            19.570493698120117
          ],
          [
            -98.81443786621094,
            19.570493698120117
          ],
          [
            -98.81443786621094,
            19.570499420166016
          ],
          [
            -98.81443786621094,
            19.570499420166016
          ],
          [
            -98.81443786621094,
            19.570499420166016
          ],
          [
            -98.81443786621094,
            19.570499420166016
          ],
          [
            -98.81443786621094,
            19.570499420166016
          ],
          [
            -98.81443786621094,
            19.570499420166016
          ],
          [
            -98.81443786621094,
            19.570499420166016
          ],
          [
            -98.81443786621094,
            19.57050323486328
          ],
          [
            -98.81443786621094,
            19.57050323486328
          ],
          [
            -98.81443786621094,
            19.570507049560547
          ],
          [
            -98.81443786621094,
            19.570507049560547
          ],
          [
            -98.81443786621094,
            19.570512771606445
          ],
          [
            -98.8144302368164,
            19.570514678955078
          ],
          [
            -98.8144302368164,
            19.570514678955078
          ],
          [
            -98.8144302368164,
            19.570514678955078
          ],
          [
            -98.8144302368164,
            19.570514678955078
          ],
          [
            -98.8144302368164,
            19.570514678955078
          ],
          [
            -98.8144302368164,
            19.570514678955078
          ],
          [
            -98.8144302368164,
            19.57051658630371
          ],
          [
            -98.8144302368164,
            19.57051658630371
          ],
          [
            -98.8144302368164,
            19.57051658630371
          ],
          [
            -98.8144302368164,
            19.57051658630371
          ],
          [
            -98.8144302368164,
            19.57051658630371
          ],
          [
            -98.8144302368164,
            19.57051658630371
          ],
          [
            -98.8144302368164,
            19.57051658630371
          ],
          [
            -98.8144302368164,
            19.57051658630371
          ],
          [
            -98.8144302368164,
            19.57051658630371
          ],
          [
            -98.8144302368164,
            19.570518493652344
          ],
          [
            -98.8144302368164,
            19.570520401000977
          ],
          [
            -98.8144302368164,
            19.570520401000977
          ],
          [
            -98.81442260742188,
            19.570524215698242
          ],
          [
            -98.81442260742188,
            19.570524215698242
          ],
          [
            -98.81442260742188,
            19.570526123046875
          ],
          [
            -98.81442260742188,
            19.570526123046875
          ],
          [
            -98.81442260742188,
            19.570528030395508
          ],
          [
            -98.81442260742188,
            19.570528030395508
          ],
          [
            -98.81441497802734,
            19.57052993774414
          ],
          [
            -98.81441497802734,
            19.57052993774414
          ],
          [
            -98.81441497802734,
            19.570531845092773
          ],
          [
            -98.81441497802734,
            19.570531845092773
          ],
          [
            -98.81441497802734,
            19.570531845092773
          ],
          [
            -98.81441497802734,
            19.570531845092773
          ],
          [
            -98.81441497802734,
            19.570531845092773
          ],
          [
            -98.81441497802734,
            19.570531845092773
          ],
          [
            -98.81441497802734,
            19.570531845092773
          ],
          [
            -98.81441497802734,
            19.570531845092773
          ],
          [
            -98.81441497802734,
            19.570531845092773
          ],
          [
            -98.81441497802734,
            19.570531845092773
          ],
          [
            -98.81441497802734,
            19.570533752441406
          ],
          [
            -98.81441497802734,
            19.570533752441406
          ],
          [
            -98.81441497802734,
            19.570533752441406
          ],
          [
            -98.81441497802734,
            19.570533752441406
          ],
          [
            -98.81441497802734,
            19.57053565979004
          ],
          [
            -98.81441497802734,
            19.57053565979004
          ],
          [
            -98.8144073486328,
            19.5705394744873
          ],
          [
            -98.8144073486328,
            19.5705394744873
          ],
          [
            -98.8144073486328,
            19.5705394744873
          ],
          [
            -98.8144073486328,
            19.5705394744873
          ],
          [
            -98.8144073486328,
            19.5705394744873
          ],
          [
            -98.8144073486328,
            19.5705394744873
          ],
          [
            -98.8144073486328,
            19.5705394744873
          ],
          [
            -98.8144073486328,
            19.5705394744873
          ],
          [
            -98.8144073486328,
            19.570541381835938
          ],
          [
            -98.8144073486328,
            19.5705451965332
          ],
          [
            -98.8144073486328,
            19.5705451965332
          ],
          [
            -98.8144073486328,
            19.5705451965332
          ],
          [
            -98.8144073486328,
            19.57054901123047
          ],
          [
            -98.8144073486328,
            19.57054901123047
          ],
          [
            -98.8143997192383,
            19.5705509185791
          ],
          [
            -98.8143997192383,
            19.5705509185791
          ],
          [
            -98.8143997192383,
            19.570554733276367
          ],
          [
            -98.8143997192383,
            19.570554733276367
          ],
          [
            -98.8143997192383,
            19.570556640625
          ],
          [
            -98.8143997192383,
            19.570556640625
          ],
          [
            -98.8143997192383,
            19.570560455322266
          ],
          [
            -98.8143997192383,
            19.570560455322266
          ],
          [
            -98.8143997192383,
            19.57056427001953
          ],
          [
            -98.8143997192383,
            19.57056427001953
          ],
          [
            -98.81439208984375,
            19.570566177368164
          ],
          [
            -98.81439208984375,
            19.570566177368164
          ],
          [
            -98.81439208984375,
            19.57056999206543
          ],
          [
            -98.81439208984375,
            19.57056999206543
          ],
          [
            -98.81439208984375,
            19.57056999206543
          ],
          [
            -98.81439208984375,
            19.57056999206543
          ],
          [
            -98.81439208984375,
            19.570571899414062
          ],
          [
            -98.81439208984375,
            19.570571899414062
          ],
          [
            -98.81439208984375,
            19.570575714111328
          ],
          [
            -98.8143844604492,
            19.57057762145996
          ],
          [
            -98.8143844604492,
            19.570581436157227
          ],
          [
            -98.8143844604492,
            19.570581436157227
          ],
          [
            -98.8143844604492,
            19.570585250854492
          ],
          [
            -98.8143844604492,
            19.570585250854492
          ],
          [
            -98.8143844604492,
            19.570587158203125
          ],
          [
            -98.8143844604492,
            19.570587158203125
          ],
          [
            -98.8143844604492,
            19.57059097290039
          ],
          [
            -98.8143844604492,
            19.57059097290039
          ],
          [
            -98.8143768310547,
            19.570592880249023
          ],
          [
            -98.8143768310547,
            19.570592880249023
          ],
          [
            -98.8143768310547,
            19.57059669494629
          ],
          [
            -98.8143768310547,
            19.57059669494629
          ],
          [
            -98.8143768310547,
            19.570598602294922
          ],
          [
            -98.8143768310547,
            19.570598602294922
          ],
          [
            -98.8143768310547,
            19.570602416992188
          ],
          [
            -98.8143768310547,
            19.570602416992188
          ],
          [
            -98.8143768310547,
            19.57060432434082
          ],
          [
            -98.8143768310547,
            19.57060432434082
          ],
          [
            -98.81436920166016,
            19.570608139038086
          ],
          [
            -98.81436920166016,
            19.570608139038086
          ],
          [
            -98.81436920166016,
            19.57061004638672
          ],
          [
            -98.81436920166016,
            19.57061004638672
          ],
          [
            -98.81436920166016,
            19.570613861083984
          ],
          [
            -98.81436920166016,
            19.570613861083984
          ],
          [
            -98.81436920166016,
            19.570615768432617
          ],
          [
            -98.81436920166016,
            19.570615768432617
          ],
          [
            -98.81436920166016,
            19.570615768432617
          ],
          [
            -98.81436920166016,
            19.570615768432617
          ],
          [
            -98.81436920166016,
            19.570615768432617
          ],
          [
            -98.81436920166016,
            19.570615768432617
          ],
          [
            -98.81436920166016,
            19.570615768432617
          ],
          [
            -98.81436920166016,
            19.570615768432617
          ],
          [
            -98.81436920166016,
            19.570615768432617
          ],
          [
            -98.81436920166016,
            19.570615768432617
          ],
          [
            -98.81436920166016,
            19.570615768432617
          ],
          [
            -98.81436920166016,
            19.570615768432617
          ],
          [
            -98.81436920166016,
            19.570615768432617
          ],
          [
            -98.81436920166016,
            19.57061767578125
          ],
          [
            -98.81436157226562,
            19.570619583129883
          ],
          [
            -98.81436157226562,
            19.57062339782715
          ],
          [
            -98.81436157226562,
            19.57062339782715
          ],
          [
            -98.81436157226562,
            19.57062530517578
          ],
          [
            -98.81436157226562,
            19.57062530517578
          ],
          [
            -98.81436157226562,
            19.570629119873047
          ],
          [
            -98.81436157226562,
            19.570629119873047
          ],
          [
            -98.81436157226562,
            19.57063102722168
          ],
          [
            -98.81436157226562,
            19.57063102722168
          ],
          [
            -98.8143539428711,
            19.570634841918945
          ],
          [
            -98.8143539428711,
            19.570634841918945
          ],
          [
            -98.8143539428711,
            19.570636749267578
          ],
          [
            -98.8143539428711,
            19.570636749267578
          ],
          [
            -98.8143539428711,
            19.570640563964844
          ],
          [
            -98.8143539428711,
            19.570640563964844
          ],
          [
            -98.8143539428711,
            19.570640563964844
          ],
          [
            -98.8143539428711,
            19.570640563964844
          ],
          [
            -98.8143539428711,
            19.570642471313477
          ],
          [
            -98.81434631347656,
            19.57064437866211
          ],
          [
            -98.81434631347656,
            19.57064437866211
          ],
          [
            -98.81434631347656,
            19.570648193359375
          ],
          [
            -98.81434631347656,
            19.570650100708008
          ],
          [
            -98.81434631347656,
            19.570650100708008
          ],
          [
            -98.81434631347656,
            19.570653915405273
          ],
          [
            -98.81434631347656,
            19.570653915405273
          ],
          [
            -98.81434631347656,
            19.570655822753906
          ],
          [
            -98.81434631347656,
            19.570655822753906
          ],
          [
            -98.81433868408203,
            19.570659637451172
          ],
          [
            -98.81433868408203,
            19.570659637451172
          ],
          [
            -98.81433868408203,
            19.5706615447998
          ],
          [
            -98.81433868408203,
            19.5706615447998
          ],
          [
            -98.81433868408203,
            19.570663452148438
          ],
          [
            -98.81433868408203,
            19.570663452148438
          ],
          [
            -98.81433868408203,
            19.5706672668457
          ],
          [
            -98.81433868408203,
            19.5706672668457
          ],
          [
            -98.8143310546875,
            19.570669174194336
          ],
          [
            -98.8143310546875,
            19.5706729888916
          ],
          [
            -98.8143310546875,
            19.5706729888916
          ],
          [
            -98.8143310546875,
            19.5706729888916
          ],
          [
            -98.8143310546875,
            19.570674896240234
          ],
          [
            -98.8143310546875,
            19.5706787109375
          ],
          [
            -98.8143310546875,
            19.5706787109375
          ],
          [
            -98.81432342529297,
            19.570680618286133
          ],
          [
            -98.81432342529297,
            19.570680618286133
          ],
          [
            -98.81432342529297,
            19.570682525634766
          ],
          [
            -98.81432342529297,
            19.570682525634766
          ],
          [
            -98.81432342529297,
            19.57068634033203
          ],
          [
            -98.81432342529297,
            19.570688247680664
          ],
          [
            -98.81432342529297,
            19.570688247680664
          ]
        ]
      }
    },
    {
      "type": "Feature",
      "properties": {
        "sequence": 1,
        "motivo": "inicio"
      },
      "geometry": {
        "type": "Point",
        "coordinates": [
          -98.81443786621094,
          19.570484161376953
        ]
      }
    },
    {
      "type": "Feature",
      "properties": {
        "sequence": 2,
        "motivo": "espaciado"
      },
      "geometry": {
        "type": "Point",
        "coordinates": [
          -98.81443786621094,
          19.570493698120117
        ]
      }
    },
    {
      "type": "Feature",
      "properties": {
        "sequence": 3,
        "motivo": "espaciado"
      },
      "geometry": {
        "type": "Point",
        "coordinates": [
          -98.81443786621094,
          19.57050323486328
        ]
      }
    },
    {
      "type": "Feature",
      "properties": {
        "sequence": 4,
        "motivo": "espaciado"
      },
      "geometry": {
        "type": "Point",
        "coordinates": [
          -98.81443786621094,
          19.570512771606445
        ]
      }
    },
    {
      "type": "Feature",
      "properties": {
        "sequence": 5,
        "motivo": "curva"
      },
      "geometry": {
        "type": "Point",
        "coordinates": [
          -98.8144302368164,
          19.570514678955078
        ]
      }
    },
    {
      "type": "Feature",
      "properties": {
        "sequence": 6,
        "motivo": "curva"
      },
      "geometry": {
        "type": "Point",
        "coordinates": [
          -98.8144302368164,
          19.570518493652344
        ]
      }
    },
    {
      "type": "Feature",
      "properties": {
        "sequence": 7,
        "motivo": "espaciado"
      },
      "geometry": {
        "type": "Point",
        "coordinates": [
          -98.81442260742188,
          19.570524215698242
        ]
      }
    },
    {
      "type": "Feature",
      "properties": {
        "sequence": 8,
        "motivo": "curva"
      },
      "geometry": {
        "type": "Point",
        "coordinates": [
          -98.81442260742188,
          19.570528030395508
        ]
      }
    },
    {
      "type": "Feature",
      "properties": {
        "sequence": 9,
        "motivo": "curva"
      },
      "geometry": {
        "type": "Point",
        "coordinates": [
          -98.81441497802734,
          19.57052993774414
        ]
      }
    },
    {
      "type": "Feature",
      "properties": {
        "sequence": 10,
        "motivo": "curva"
      },
      "geometry": {
        "type": "Point",
        "coordinates": [
          -98.81441497802734,
          19.570533752441406
        ]
      }
    },
    {
      "type": "Feature",
      "properties": {
        "sequence": 11,
        "motivo": "espaciado"
      },
      "geometry": {
        "type": "Point",
        "coordinates": [
          -98.8144073486328,
          19.5705394744873
        ]
      }
    },
    {
      "type": "Feature",
      "properties": {
        "sequence": 12,
        "motivo": "curva"
      },
      "geometry": {
        "type": "Point",
        "coordinates": [
          -98.8144073486328,
          19.5705451965332
        ]
      }
    },
    {
      "type": "Feature",
      "properties": {
        "sequence": 13,
        "motivo": "espaciado"
      },
      "geometry": {
        "type": "Point",
        "coordinates": [
          -98.8143997192383,
          19.5705509185791
        ]
      }
    },
    {
      "type": "Feature",
      "properties": {
        "sequence": 14,
        "motivo": "curva"
      },
      "geometry": {
        "type": "Point",
        "coordinates": [
          -98.8143997192383,
          19.570554733276367
        ]
      }
    },
    {
      "type": "Feature",
      "properties": {
        "sequence": 15,
        "motivo": "espaciado"
      },
      "geometry": {
        "type": "Point",
        "coordinates": [
          -98.8143997192383,
          19.57056427001953
        ]
      }
    },
    {
      "type": "Feature",
      "properties": {
        "sequence": 16,
        "motivo": "curva"
      },
      "geometry": {
        "type": "Point",
        "coordinates": [
          -98.81439208984375,
          19.570566177368164
        ]
      }
    },
    {
      "type": "Feature",
      "properties": {
        "sequence": 17,
        "motivo": "curva"
      },
      "geometry": {
        "type": "Point",
        "coordinates": [
          -98.81439208984375,
          19.57056999206543
        ]
      }
    },
    {
      "type": "Feature",
      "properties": {
        "sequence": 18,
        "motivo": "espaciado"
      },
      "geometry": {
        "type": "Point",
        "coordinates": [
          -98.8143844604492,
          19.57057762145996
        ]
      }
    },
    {
      "type": "Feature",
      "properties": {
        "sequence": 19,
        "motivo": "curva"
      },
      "geometry": {
        "type": "Point",
        "coordinates": [
          -98.8143844604492,
          19.570581436157227
        ]
      }
    },
    {
      "type": "Feature",
      "properties": {
        "sequence": 20,
        "motivo": "espaciado"
      },
      "geometry": {
        "type": "Point",
        "coordinates": [
          -98.8143844604492,
          19.57059097290039
        ]
      }
    },
    {
      "type": "Feature",
      "properties": {
        "sequence": 21,
        "motivo": "curva"
      },
      "geometry": {
        "type": "Point",
        "coordinates": [
          -98.8143768310547,
          19.570592880249023
        ]
      }
    },
    {
      "type": "Feature",
      "properties": {
        "sequence": 22,
        "motivo": "curva"
      },
      "geometry": {
        "type": "Point",
        "coordinates": [
          -98.8143768310547,
          19.57059669494629
        ]
      }
    },
    {
      "type": "Feature",
      "properties": {
        "sequence": 23,
        "motivo": "espaciado"
      },
      "geometry": {
        "type": "Point",
        "coordinates": [
          -98.81436920166016,
          19.570608139038086
        ]
      }
    },
    {
      "type": "Feature",
      "properties": {
        "sequence": 24,
        "motivo": "curva"
      },
      "geometry": {
        "type": "Point",
        "coordinates": [
          -98.81436920166016,
          19.570613861083984
        ]
      }
    },
    {
      "type": "Feature",
      "properties": {
        "sequence": 25,
        "motivo": "espaciado"
      },
      "geometry": {
        "type": "Point",
        "coordinates": [
          -98.81436157226562,
          19.570619583129883
        ]
      }
    },
    {
      "type": "Feature",
      "properties": {
        "sequence": 26,
        "motivo": "curva"
      },
      "geometry": {
        "type": "Point",
        "coordinates": [
          -98.81436157226562,
          19.57062339782715
        ]
      }
    },
    {
      "type": "Feature",
      "properties": {
        "sequence": 27,
        "motivo": "espaciado"
      },
      "geometry": {
        "type": "Point",
        "coordinates": [
          -98.8143539428711,
          19.570634841918945
        ]
      }
    },
    {
      "type": "Feature",
      "properties": {
        "sequence": 28,
        "motivo": "curva"
      },
      "geometry": {
        "type": "Point",
        "coordinates": [
          -98.8143539428711,
          19.570640563964844
        ]
      }
    },
    {
      "type": "Feature",
      "properties": {
        "sequence": 29,
        "motivo": "curva"
      },
      "geometry": {
        "type": "Point",
        "coordinates": [
          -98.81434631347656,
          19.57064437866211
        ]
      }
    },
    {
      "type": "Feature",
      "properties": {
        "sequence": 30,
        "motivo": "curva"
      },
      "geometry": {
        "type": "Point",
        "coordinates": [
          -98.81434631347656,
          19.570648193359375
        ]
      }
    },
    {
      "type": "Feature",
      "properties": {
        "sequence": 31,
        "motivo": "espaciado"
      },
      "geometry": {
        "type": "Point",
        "coordinates": [
          -98.81433868408203,
          19.570659637451172
        ]
      }
    },
    {
      "type": "Feature",
      "properties": {
        "sequence": 32,
        "motivo": "curva"
      },
      "geometry": {
        "type": "Point",
        "coordinates": [
          -98.81433868408203,
          19.570663452148438
        ]
      }
    },
    {
      "type": "Feature",
      "properties": {
        "sequence": 33,
        "motivo": "espaciado"
      },
      "geometry": {
        "type": "Point",
        "coordinates": [
          -98.8143310546875,
          19.570669174194336
        ]
      }
    },
    {
      "type": "Feature",
      "properties": {
        "sequence": 34,
        "motivo": "curva"
      },
      "geometry": {
        "type": "Point",
        "coordinates": [
          -98.8143310546875,
          19.5706729888916
        ]
      }
    },
    {
      "type": "Feature",
      "properties": {
        "sequence": 35,
        "motivo": "espaciado"
      },
      "geometry": {
        "type": "Point",
        "coordinates": [
          -98.81432342529297,
          19.570680618286133
        ]
      }
    },
    {
      "type": "Feature",
      "properties": {
        "sequence": 36,
        "motivo": "curva"
      },
      "geometry": {
        "type": "Point",
        "coordinates": [
          -98.81432342529297,
          19.57068634033203
        ]
      }
    }
  ]
}